{
  "type": "FeatureCollection",
  "schema_version": "disaster-replay.designated-shelters.v1",
  "classification": "OBSERVED_PUBLIC_STATIC_DESIGNATION",
  "disclosure": "These are officially designated locations. This file does not say that any location was open, safe, staffed, supplied, reachable, or had spare capacity after the earthquake.",
  "designation_record_count": 92,
  "unique_location_count": 56,
  "bbox": [
    130.468192,
    32.581457,
    130.768713,
    32.65904
  ],
  "source": {
    "provider": "Geospatial Information Authority of Japan",
    "landing_page": "https://www.gsi.go.jp/bousaichiri/hinanbasho",
    "attribution": "Geospatial Information Authority of Japan; normalized by AURAWORLD.",
    "frozen_on": "2026-08-23",
    "files": [
      {
        "source_id": "43213_1",
        "kind": "DESIGNATED_SHELTER",
        "url": "https://hinanmap.gsi.go.jp/hinanjocp/defaultFtpData/geoJSON/43213_1.geojson",
        "source_sha256": "d75a6fde14520c04b8e40de6e8fbb38738ed6bd2ca72aa023c2472dc866f5f98",
        "source_feature_count": 45,
        "selected_feature_count": 45
      },
      {
        "source_id": "43213_2",
        "kind": "EARTHQUAKE_EVACUATION_PLACE",
        "url": "https://hinanmap.gsi.go.jp/hinanjocp/defaultFtpData/geoJSON/43213_2.geojson",
        "source_sha256": "1740b901d9f4de568e04c660a0f37d2f698a734d060095004ec07ffe335344c2",
        "source_feature_count": 49,
        "selected_feature_count": 47
      }
    ]
  },
  "features": [
    {
      "type": "Feature",
      "id": "gsi-uki-designated-shelter-E4321300001111",
      "geometry": {
        "type": "Point",
        "coordinates": [
          130.529012,
          32.623574
        ]
      },
      "properties": {
        "source_feature_id": "E4321300001111",
        "name": "宇城市立青海小学校体育館",
        "address": "熊本県宇城市三角町郡浦88",
        "designation": "DESIGNATED_SHELTER",
        "earthquake_eligible": null,
        "event_status": "DESIGNATED_ONLY_UNKNOWN_EVENT_STATUS",
        "source_file_id": "43213_1",
        "source_sequence": "1"
      }
    },
    {
      "type": "Feature",
      "id": "gsi-uki-designated-shelter-E4321300002111",
      "geometry": {
        "type": "Point",
        "coordinates": [
          130.494036,
          32.601028
        ]
      },
      "properties": {
        "source_feature_id": "E4321300002111",
        "name": "宇城市農村環境改善センター",
        "address": "熊本県宇城市三角町戸馳2861",
        "designation": "DESIGNATED_SHELTER",
        "earthquake_eligible": null,
        "event_status": "DESIGNATED_ONLY_UNKNOWN_EVENT_STATUS",
        "source_file_id": "43213_1",
        "source_sequence": "2"
      }
    },
    {
      "type": "Feature",
      "id": "gsi-uki-designated-shelter-E4321300003111",
      "geometry": {
        "type": "Point",
        "coordinates": [
          130.492094,
          32.598855
        ]
      },
      "properties": {
        "source_feature_id": "E4321300003111",
        "name": "宇城市戸馳地区生涯学習センター体育館",
        "address": "熊本県宇城市三角町戸馳5151",
        "designation": "DESIGNATED_SHELTER",
        "earthquake_eligible": null,
        "event_status": "DESIGNATED_ONLY_UNKNOWN_EVENT_STATUS",
        "source_file_id": "43213_1",
        "source_sequence": "3"
      }
    },
    {
      "type": "Feature",
      "id": "gsi-uki-designated-shelter-E4321300004111",
      "geometry": {
        "type": "Point",
        "coordinates": [
          130.468192,
          32.610957
        ]
      },
      "properties": {
        "source_feature_id": "E4321300004111",
        "name": "宇城市立三角小学校体育館",
        "address": "熊本県宇城市三角町三角浦574-1",
        "designation": "DESIGNATED_SHELTER",
        "earthquake_eligible": null,
        "event_status": "DESIGNATED_ONLY_UNKNOWN_EVENT_STATUS",
        "source_file_id": "43213_1",
        "source_sequence": "4"
      }
    },
    {
      "type": "Feature",
      "id": "gsi-uki-designated-shelter-E4321300005111",
      "geometry": {
        "type": "Point",
        "coordinates": [
          130.52076,
          32.62558
        ]
      },
      "properties": {
        "source_feature_id": "E4321300005111",
        "name": "宇城市郡浦地区市民館",
        "address": "熊本県宇城市三角町中村1165",
        "designation": "DESIGNATED_SHELTER",
        "earthquake_eligible": null,
        "event_status": "DESIGNATED_ONLY_UNKNOWN_EVENT_STATUS",
        "source_file_id": "43213_1",
        "source_sequence": "5"
      }
    },
    {
      "type": "Feature",
      "id": "gsi-uki-designated-shelter-E4321300006111",
      "geometry": {
        "type": "Point",
        "coordinates": [
          130.488323,
          32.619181
        ]
      },
      "properties": {
        "source_feature_id": "E4321300006111",
        "name": "宇城市三角東地区生涯学習センター体育館",
        "address": "熊本県宇城市三角町波多1756",
        "designation": "DESIGNATED_SHELTER",
        "earthquake_eligible": null,
        "event_status": "DESIGNATED_ONLY_UNKNOWN_EVENT_STATUS",
        "source_file_id": "43213_1",
        "source_sequence": "6"
      }
    },
    {
      "type": "Feature",
      "id": "gsi-uki-designated-shelter-E4321300007121",
      "geometry": {
        "type": "Point",
        "coordinates": [
          130.478616,
          32.613167
        ]
      },
      "properties": {
        "source_feature_id": "E4321300007121",
        "name": "宇城市三角防災拠点センター",
        "address": "熊本県宇城市三角町波多619-1",
        "designation": "DESIGNATED_SHELTER",
        "earthquake_eligible": null,
        "event_status": "DESIGNATED_ONLY_UNKNOWN_EVENT_STATUS",
        "source_file_id": "43213_1",
        "source_sequence": "7"
      }
    },
    {
      "type": "Feature",
      "id": "gsi-uki-designated-shelter-E4321300010111",
      "geometry": {
        "type": "Point",
        "coordinates": [
          130.704186,
          32.592538
        ]
      },
      "properties": {
        "source_feature_id": "E4321300010111",
        "name": "宇城市小川防災拠点センター",
        "address": "熊本県宇城市小川町江頭100",
        "designation": "DESIGNATED_SHELTER",
        "earthquake_eligible": null,
        "event_status": "DESIGNATED_ONLY_UNKNOWN_EVENT_STATUS",
        "source_file_id": "43213_1",
        "source_sequence": "8"
      }
    },
    {
      "type": "Feature",
      "id": "gsi-uki-designated-shelter-E4321300011111",
      "geometry": {
        "type": "Point",
        "coordinates": [
          130.704498,
          32.593071
        ]
      },
      "properties": {
        "source_feature_id": "E4321300011111",
        "name": "小川総合文化センター・ラポート",
        "address": "熊本県宇城市小川町江頭80",
        "designation": "DESIGNATED_SHELTER",
        "earthquake_eligible": null,
        "event_status": "DESIGNATED_ONLY_UNKNOWN_EVENT_STATUS",
        "source_file_id": "43213_1",
        "source_sequence": "9"
      }
    },
    {
      "type": "Feature",
      "id": "gsi-uki-designated-shelter-E4321300012111",
      "geometry": {
        "type": "Point",
        "coordinates": [
          130.689715,
          32.599299
        ]
      },
      "properties": {
        "source_feature_id": "E4321300012111",
        "name": "宇城市立河江小学校体育館",
        "address": "熊本県宇城市小川町新田1675-1",
        "designation": "DESIGNATED_SHELTER",
        "earthquake_eligible": null,
        "event_status": "DESIGNATED_ONLY_UNKNOWN_EVENT_STATUS",
        "source_file_id": "43213_1",
        "source_sequence": "10"
      }
    },
    {
      "type": "Feature",
      "id": "gsi-uki-designated-shelter-E4321300013111",
      "geometry": {
        "type": "Point",
        "coordinates": [
          130.710802,
          32.581457
        ]
      },
      "properties": {
        "source_feature_id": "E4321300013111",
        "name": "宇城市立小川小学校体育館",
        "address": "熊本県宇城市小川町西北小川1",
        "designation": "DESIGNATED_SHELTER",
        "earthquake_eligible": null,
        "event_status": "DESIGNATED_ONLY_UNKNOWN_EVENT_STATUS",
        "source_file_id": "43213_1",
        "source_sequence": "11"
      }
    },
    {
      "type": "Feature",
      "id": "gsi-uki-designated-shelter-E4321300014111",
      "geometry": {
        "type": "Point",
        "coordinates": [
          130.742612,
          32.581537
        ]
      },
      "properties": {
        "source_feature_id": "E4321300014111",
        "name": "海東地区農村コミュニティ施設",
        "address": "熊本県宇城市小川町南海東2047-1",
        "designation": "DESIGNATED_SHELTER",
        "earthquake_eligible": null,
        "event_status": "DESIGNATED_ONLY_UNKNOWN_EVENT_STATUS",
        "source_file_id": "43213_1",
        "source_sequence": "12"
      }
    },
    {
      "type": "Feature",
      "id": "gsi-uki-designated-shelter-E4321300015111",
      "geometry": {
        "type": "Point",
        "coordinates": [
          130.744784,
          32.583439
        ]
      },
      "properties": {
        "source_feature_id": "E4321300015111",
        "name": "宇城市立海東小学校体育館",
        "address": "熊本県宇城市小川町南海東2050",
        "designation": "DESIGNATED_SHELTER",
        "earthquake_eligible": null,
        "event_status": "DESIGNATED_ONLY_UNKNOWN_EVENT_STATUS",
        "source_file_id": "43213_1",
        "source_sequence": "13"
      }
    },
    {
      "type": "Feature",
      "id": "gsi-uki-designated-shelter-E4321300016111",
      "geometry": {
        "type": "Point",
        "coordinates": [
          130.718763,
          32.607218
        ]
      },
      "properties": {
        "source_feature_id": "E4321300016111",
        "name": "宇城市立小野部田小学校体育館",
        "address": "熊本県宇城市小川町南小野1402",
        "designation": "DESIGNATED_SHELTER",
        "earthquake_eligible": null,
        "event_status": "DESIGNATED_ONLY_UNKNOWN_EVENT_STATUS",
        "source_file_id": "43213_1",
        "source_sequence": "14"
      }
    },
    {
      "type": "Feature",
      "id": "gsi-uki-designated-shelter-E4321300017111",
      "geometry": {
        "type": "Point",
        "coordinates": [
          130.693736,
          32.598717
        ]
      },
      "properties": {
        "source_feature_id": "E4321300017111",
        "name": "宇城市立河江地区コミュニティセンター",
        "address": "熊本県宇城市小川町南新田476",
        "designation": "DESIGNATED_SHELTER",
        "earthquake_eligible": null,
        "event_status": "DESIGNATED_ONLY_UNKNOWN_EVENT_STATUS",
        "source_file_id": "43213_1",
        "source_sequence": "15"
      }
    },
    {
      "type": "Feature",
      "id": "gsi-uki-designated-shelter-E4321300018111",
      "geometry": {
        "type": "Point",
        "coordinates": [
          130.714836,
          32.590202
        ]
      },
      "properties": {
        "source_feature_id": "E4321300018111",
        "name": "宇城市立小川中学校体育館",
        "address": "熊本県宇城市小川町南部田287-2",
        "designation": "DESIGNATED_SHELTER",
        "earthquake_eligible": null,
        "event_status": "DESIGNATED_ONLY_UNKNOWN_EVENT_STATUS",
        "source_file_id": "43213_1",
        "source_sequence": "16"
      }
    },
    {
      "type": "Feature",
      "id": "gsi-uki-designated-shelter-E4321300019111",
      "geometry": {
        "type": "Point",
        "coordinates": [
          130.697691,
          32.604858
        ]
      },
      "properties": {
        "source_feature_id": "E4321300019111",
        "name": "小川工業高等学校",
        "address": "熊本県宇城市小川町北新田770",
        "designation": "DESIGNATED_SHELTER",
        "earthquake_eligible": null,
        "event_status": "DESIGNATED_ONLY_UNKNOWN_EVENT_STATUS",
        "source_file_id": "43213_1",
        "source_sequence": "17"
      }
    },
    {
      "type": "Feature",
      "id": "gsi-uki-designated-shelter-E4321300020111",
      "geometry": {
        "type": "Point",
        "coordinates": [
          130.685865,
          32.647648
        ]
      },
      "properties": {
        "source_feature_id": "E4321300020111",
        "name": "松橋高等学校",
        "address": "熊本県宇城市松橋町久具300",
        "designation": "DESIGNATED_SHELTER",
        "earthquake_eligible": null,
        "event_status": "DESIGNATED_ONLY_UNKNOWN_EVENT_STATUS",
        "source_file_id": "43213_1",
        "source_sequence": "18"
      }
    },
    {
      "type": "Feature",
      "id": "gsi-uki-designated-shelter-E4321300021111",
      "geometry": {
        "type": "Point",
        "coordinates": [
          130.702127,
          32.65776
        ]
      },
      "properties": {
        "source_feature_id": "E4321300021111",
        "name": "宇城市立当尾小学校体育館",
        "address": "熊本県宇城市松橋町曲野1856",
        "designation": "DESIGNATED_SHELTER",
        "earthquake_eligible": null,
        "event_status": "DESIGNATED_ONLY_UNKNOWN_EVENT_STATUS",
        "source_file_id": "43213_1",
        "source_sequence": "19"
      }
    },
    {
      "type": "Feature",
      "id": "gsi-uki-designated-shelter-E4321300022111",
      "geometry": {
        "type": "Point",
        "coordinates": [
          130.68596,
          32.6569
        ]
      },
      "properties": {
        "source_feature_id": "E4321300022111",
        "name": "宇城市立松橋小学校体育館",
        "address": "熊本県宇城市松橋町松橋1666",
        "designation": "DESIGNATED_SHELTER",
        "earthquake_eligible": null,
        "event_status": "DESIGNATED_ONLY_UNKNOWN_EVENT_STATUS",
        "source_file_id": "43213_1",
        "source_sequence": "20"
      }
    },
    {
      "type": "Feature",
      "id": "gsi-uki-designated-shelter-E4321300023121",
      "geometry": {
        "type": "Point",
        "coordinates": [
          130.67912,
          32.647345
        ]
      },
      "properties": {
        "source_feature_id": "E4321300023121",
        "name": "松橋西支援学校",
        "address": "熊本県宇城市松橋町松橋308-1",
        "designation": "DESIGNATED_SHELTER",
        "earthquake_eligible": null,
        "event_status": "DESIGNATED_ONLY_UNKNOWN_EVENT_STATUS",
        "source_file_id": "43213_1",
        "source_sequence": "21"
      }
    },
    {
      "type": "Feature",
      "id": "gsi-uki-designated-shelter-E4321300026111",
      "geometry": {
        "type": "Point",
        "coordinates": [
          130.681745,
          32.650474
        ]
      },
      "properties": {
        "source_feature_id": "E4321300026111",
        "name": "宇城市立松橋中学校体育館",
        "address": "熊本県宇城市松橋町松橋522-1",
        "designation": "DESIGNATED_SHELTER",
        "earthquake_eligible": null,
        "event_status": "DESIGNATED_ONLY_UNKNOWN_EVENT_STATUS",
        "source_file_id": "43213_1",
        "source_sequence": "22"
      }
    },
    {
      "type": "Feature",
      "id": "gsi-uki-designated-shelter-E4321300027111",
      "geometry": {
        "type": "Point",
        "coordinates": [
          130.678418,
          32.651551
        ]
      },
      "properties": {
        "source_feature_id": "E4321300027111",
        "name": "インダストリアル研修館",
        "address": "熊本県宇城市松橋町松橋564",
        "designation": "DESIGNATED_SHELTER",
        "earthquake_eligible": null,
        "event_status": "DESIGNATED_ONLY_UNKNOWN_EVENT_STATUS",
        "source_file_id": "43213_1",
        "source_sequence": "23"
      }
    },
    {
      "type": "Feature",
      "id": "gsi-uki-designated-shelter-E4321300028121",
      "geometry": {
        "type": "Point",
        "coordinates": [
          130.678948,
          32.651496
        ]
      },
      "properties": {
        "source_feature_id": "E4321300028121",
        "name": "宇城市松橋西防災拠点センター",
        "address": "熊本県宇城市松橋町松橋564-2",
        "designation": "DESIGNATED_SHELTER",
        "earthquake_eligible": null,
        "event_status": "DESIGNATED_ONLY_UNKNOWN_EVENT_STATUS",
        "source_file_id": "43213_1",
        "source_sequence": "24"
      }
    },
    {
      "type": "Feature",
      "id": "gsi-uki-designated-shelter-E4321300031111",
      "geometry": {
        "type": "Point",
        "coordinates": [
          130.684118,
          32.64684
        ]
      },
      "properties": {
        "source_feature_id": "E4321300031111",
        "name": "宇城市松橋総合体育文化センター（ウイング松橋）",
        "address": "熊本県宇城市松橋町大野85",
        "designation": "DESIGNATED_SHELTER",
        "earthquake_eligible": null,
        "event_status": "DESIGNATED_ONLY_UNKNOWN_EVENT_STATUS",
        "source_file_id": "43213_1",
        "source_sequence": "25"
      }
    },
    {
      "type": "Feature",
      "id": "gsi-uki-designated-shelter-E4321300032121",
      "geometry": {
        "type": "Point",
        "coordinates": [
          130.682144,
          32.623386
        ]
      },
      "properties": {
        "source_feature_id": "E4321300032121",
        "name": "松橋支援学校",
        "address": "熊本県宇城市松橋町南豊崎252",
        "designation": "DESIGNATED_SHELTER",
        "earthquake_eligible": null,
        "event_status": "DESIGNATED_ONLY_UNKNOWN_EVENT_STATUS",
        "source_file_id": "43213_1",
        "source_sequence": "26"
      }
    },
    {
      "type": "Feature",
      "id": "gsi-uki-designated-shelter-E4321300033111",
      "geometry": {
        "type": "Point",
        "coordinates": [
          130.679587,
          32.624862
        ]
      },
      "properties": {
        "source_feature_id": "E4321300033111",
        "name": "宇城市立豊川小学校体育館",
        "address": "熊本県宇城市松橋町南豊崎582",
        "designation": "DESIGNATED_SHELTER",
        "earthquake_eligible": null,
        "event_status": "DESIGNATED_ONLY_UNKNOWN_EVENT_STATUS",
        "source_file_id": "43213_1",
        "source_sequence": "27"
      }
    },
    {
      "type": "Feature",
      "id": "gsi-uki-designated-shelter-E4321300034111",
      "geometry": {
        "type": "Point",
        "coordinates": [
          130.700735,
          32.634482
        ]
      },
      "properties": {
        "source_feature_id": "E4321300034111",
        "name": "宇城市立豊福小学校体育館",
        "address": "熊本県宇城市松橋町豊福1604",
        "designation": "DESIGNATED_SHELTER",
        "earthquake_eligible": null,
        "event_status": "DESIGNATED_ONLY_UNKNOWN_EVENT_STATUS",
        "source_file_id": "43213_1",
        "source_sequence": "28"
      }
    },
    {
      "type": "Feature",
      "id": "gsi-uki-designated-shelter-E4321300035111",
      "geometry": {
        "type": "Point",
        "coordinates": [
          130.70305,
          32.642337
        ]
      },
      "properties": {
        "source_feature_id": "E4321300035111",
        "name": "松橋勤労身体障害者教養文化体育施設",
        "address": "熊本県宇城市松橋町豊福1786",
        "designation": "DESIGNATED_SHELTER",
        "earthquake_eligible": null,
        "event_status": "DESIGNATED_ONLY_UNKNOWN_EVENT_STATUS",
        "source_file_id": "43213_1",
        "source_sequence": "29"
      }
    },
    {
      "type": "Feature",
      "id": "gsi-uki-designated-shelter-E4321300035112",
      "geometry": {
        "type": "Point",
        "coordinates": [
          130.701651,
          32.64279
        ]
      },
      "properties": {
        "source_feature_id": "E4321300035112",
        "name": "松橋老人福祉センター",
        "address": "熊本県宇城市松橋町豊福1786",
        "designation": "DESIGNATED_SHELTER",
        "earthquake_eligible": null,
        "event_status": "DESIGNATED_ONLY_UNKNOWN_EVENT_STATUS",
        "source_file_id": "43213_1",
        "source_sequence": "30"
      }
    },
    {
      "type": "Feature",
      "id": "gsi-uki-designated-shelter-E4321300035121",
      "geometry": {
        "type": "Point",
        "coordinates": [
          130.702563,
          32.642917
        ]
      },
      "properties": {
        "source_feature_id": "E4321300035121",
        "name": "宇城市松橋東防災拠点センター",
        "address": "熊本県宇城市松橋町豊福1786",
        "designation": "DESIGNATED_SHELTER",
        "earthquake_eligible": null,
        "event_status": "DESIGNATED_ONLY_UNKNOWN_EVENT_STATUS",
        "source_file_id": "43213_1",
        "source_sequence": "31"
      }
    },
    {
      "type": "Feature",
      "id": "gsi-uki-designated-shelter-E4321300036121",
      "geometry": {
        "type": "Point",
        "coordinates": [
          130.700077,
          32.644439
        ]
      },
      "properties": {
        "source_feature_id": "E4321300036121",
        "name": "松橋東支援学校",
        "address": "熊本県宇城市松橋町豊福2910",
        "designation": "DESIGNATED_SHELTER",
        "earthquake_eligible": null,
        "event_status": "DESIGNATED_ONLY_UNKNOWN_EVENT_STATUS",
        "source_file_id": "43213_1",
        "source_sequence": "32"
      }
    },
    {
      "type": "Feature",
      "id": "gsi-uki-designated-shelter-E4321300037111",
      "geometry": {
        "type": "Point",
        "coordinates": [
          130.662448,
          32.644928
        ]
      },
      "properties": {
        "source_feature_id": "E4321300037111",
        "name": "不知火小学校体育館",
        "address": "熊本県宇城市不知火町高良1952",
        "designation": "DESIGNATED_SHELTER",
        "earthquake_eligible": null,
        "event_status": "DESIGNATED_ONLY_UNKNOWN_EVENT_STATUS",
        "source_file_id": "43213_1",
        "source_sequence": "33"
      }
    },
    {
      "type": "Feature",
      "id": "gsi-uki-designated-shelter-E4321300039111",
      "geometry": {
        "type": "Point",
        "coordinates": [
          130.668538,
          32.645966
        ]
      },
      "properties": {
        "source_feature_id": "E4321300039111",
        "name": "宇城市立不知火体育館",
        "address": "熊本県宇城市不知火町高良2273-1",
        "designation": "DESIGNATED_SHELTER",
        "earthquake_eligible": null,
        "event_status": "DESIGNATED_ONLY_UNKNOWN_EVENT_STATUS",
        "source_file_id": "43213_1",
        "source_sequence": "35"
      }
    },
    {
      "type": "Feature",
      "id": "gsi-uki-designated-shelter-E4321300039112",
      "geometry": {
        "type": "Point",
        "coordinates": [
          130.667904,
          32.646722
        ]
      },
      "properties": {
        "source_feature_id": "E4321300039112",
        "name": "宇城市不知火支所",
        "address": "熊本県宇城市不知火町高良2273-1",
        "designation": "DESIGNATED_SHELTER",
        "earthquake_eligible": null,
        "event_status": "DESIGNATED_ONLY_UNKNOWN_EVENT_STATUS",
        "source_file_id": "43213_1",
        "source_sequence": "34"
      }
    },
    {
      "type": "Feature",
      "id": "gsi-uki-designated-shelter-E4321300039113",
      "geometry": {
        "type": "Point",
        "coordinates": [
          130.668637,
          32.645665
        ]
      },
      "properties": {
        "source_feature_id": "E4321300039113",
        "name": "武道館",
        "address": "熊本県宇城市不知火町高良2273-1",
        "designation": "DESIGNATED_SHELTER",
        "earthquake_eligible": null,
        "event_status": "DESIGNATED_ONLY_UNKNOWN_EVENT_STATUS",
        "source_file_id": "43213_1",
        "source_sequence": "36"
      }
    },
    {
      "type": "Feature",
      "id": "gsi-uki-designated-shelter-E4321300039121",
      "geometry": {
        "type": "Point",
        "coordinates": [
          130.668192,
          32.646306
        ]
      },
      "properties": {
        "source_feature_id": "E4321300039121",
        "name": "宇城市不知火防災拠点センター",
        "address": "熊本県宇城市不知火町高良2273-1",
        "designation": "DESIGNATED_SHELTER",
        "earthquake_eligible": null,
        "event_status": "DESIGNATED_ONLY_UNKNOWN_EVENT_STATUS",
        "source_file_id": "43213_1",
        "source_sequence": "37"
      }
    },
    {
      "type": "Feature",
      "id": "gsi-uki-designated-shelter-E4321300041111",
      "geometry": {
        "type": "Point",
        "coordinates": [
          130.604503,
          32.633744
        ]
      },
      "properties": {
        "source_feature_id": "E4321300041111",
        "name": "宇城市立松合小学校体育館",
        "address": "熊本県宇城市不知火町松合1578",
        "designation": "DESIGNATED_SHELTER",
        "earthquake_eligible": null,
        "event_status": "DESIGNATED_ONLY_UNKNOWN_EVENT_STATUS",
        "source_file_id": "43213_1",
        "source_sequence": "38"
      }
    },
    {
      "type": "Feature",
      "id": "gsi-uki-designated-shelter-E4321300042111",
      "geometry": {
        "type": "Point",
        "coordinates": [
          130.607719,
          32.63063
        ]
      },
      "properties": {
        "source_feature_id": "E4321300042111",
        "name": "宇城市立松合体育館",
        "address": "熊本県宇城市不知火町松合168-1",
        "designation": "DESIGNATED_SHELTER",
        "earthquake_eligible": null,
        "event_status": "DESIGNATED_ONLY_UNKNOWN_EVENT_STATUS",
        "source_file_id": "43213_1",
        "source_sequence": "40"
      }
    },
    {
      "type": "Feature",
      "id": "gsi-uki-designated-shelter-E4321300044111",
      "geometry": {
        "type": "Point",
        "coordinates": [
          130.656776,
          32.646738
        ]
      },
      "properties": {
        "source_feature_id": "E4321300044111",
        "name": "宇城市立不知火中学校体育館",
        "address": "熊本県宇城市不知火町長崎45",
        "designation": "DESIGNATED_SHELTER",
        "earthquake_eligible": null,
        "event_status": "DESIGNATED_ONLY_UNKNOWN_EVENT_STATUS",
        "source_file_id": "43213_1",
        "source_sequence": "41"
      }
    },
    {
      "type": "Feature",
      "id": "gsi-uki-designated-shelter-E4321300045111",
      "geometry": {
        "type": "Point",
        "coordinates": [
          130.753663,
          32.634934
        ]
      },
      "properties": {
        "source_feature_id": "E4321300045111",
        "name": "宇城市農業者トレーニングセンター",
        "address": "熊本県宇城市豊野町糸石3029",
        "designation": "DESIGNATED_SHELTER",
        "earthquake_eligible": null,
        "event_status": "DESIGNATED_ONLY_UNKNOWN_EVENT_STATUS",
        "source_file_id": "43213_1",
        "source_sequence": "42"
      }
    },
    {
      "type": "Feature",
      "id": "gsi-uki-designated-shelter-E4321300046121",
      "geometry": {
        "type": "Point",
        "coordinates": [
          130.750995,
          32.63583
        ]
      },
      "properties": {
        "source_feature_id": "E4321300046121",
        "name": "宇城市豊野防災拠点センター",
        "address": "熊本県宇城市豊野町糸石3140-3",
        "designation": "DESIGNATED_SHELTER",
        "earthquake_eligible": null,
        "event_status": "DESIGNATED_ONLY_UNKNOWN_EVENT_STATUS",
        "source_file_id": "43213_1",
        "source_sequence": "43"
      }
    },
    {
      "type": "Feature",
      "id": "gsi-uki-designated-shelter-E4321300048111",
      "geometry": {
        "type": "Point",
        "coordinates": [
          130.749568,
          32.636967
        ]
      },
      "properties": {
        "source_feature_id": "E4321300048111",
        "name": "宇城市立豊野小・中学校体育館",
        "address": "熊本県宇城市豊野町糸石3536",
        "designation": "DESIGNATED_SHELTER",
        "earthquake_eligible": null,
        "event_status": "DESIGNATED_ONLY_UNKNOWN_EVENT_STATUS",
        "source_file_id": "43213_1",
        "source_sequence": "44"
      }
    },
    {
      "type": "Feature",
      "id": "gsi-uki-designated-shelter-E4321300049111",
      "geometry": {
        "type": "Point",
        "coordinates": [
          130.768713,
          32.644052
        ]
      },
      "properties": {
        "source_feature_id": "E4321300049111",
        "name": "宇城市豊野町コミュニティセンター",
        "address": "熊本県宇城市豊野町巣林309-1",
        "designation": "DESIGNATED_SHELTER",
        "earthquake_eligible": null,
        "event_status": "DESIGNATED_ONLY_UNKNOWN_EVENT_STATUS",
        "source_file_id": "43213_1",
        "source_sequence": "45"
      }
    },
    {
      "type": "Feature",
      "id": "gsi-uki-designated-shelter-E4321300050111",
      "geometry": {
        "type": "Point",
        "coordinates": [
          130.608016,
          32.630606
        ]
      },
      "properties": {
        "source_feature_id": "E4321300050111",
        "name": "宇城市松合地区市民館",
        "address": "熊本県宇城市不知火町松合168",
        "designation": "DESIGNATED_SHELTER",
        "earthquake_eligible": null,
        "event_status": "DESIGNATED_ONLY_UNKNOWN_EVENT_STATUS",
        "source_file_id": "43213_1",
        "source_sequence": "39"
      }
    },
    {
      "type": "Feature",
      "id": "gsi-uki-earthquake-evacuation-place-E4321300001201",
      "geometry": {
        "type": "Point",
        "coordinates": [
          130.529012,
          32.623574
        ]
      },
      "properties": {
        "source_feature_id": "E4321300001201",
        "name": "青海小学校体育館",
        "address": "熊本県宇城市三角町郡浦88",
        "designation": "EARTHQUAKE_EVACUATION_PLACE",
        "earthquake_eligible": true,
        "event_status": "DESIGNATED_ONLY_UNKNOWN_EVENT_STATUS",
        "source_file_id": "43213_2",
        "source_sequence": "1"
      }
    },
    {
      "type": "Feature",
      "id": "gsi-uki-earthquake-evacuation-place-E4321300002201",
      "geometry": {
        "type": "Point",
        "coordinates": [
          130.494036,
          32.601028
        ]
      },
      "properties": {
        "source_feature_id": "E4321300002201",
        "name": "農村環境改善センター",
        "address": "熊本県宇城市三角町戸馳2861",
        "designation": "EARTHQUAKE_EVACUATION_PLACE",
        "earthquake_eligible": true,
        "event_status": "DESIGNATED_ONLY_UNKNOWN_EVENT_STATUS",
        "source_file_id": "43213_2",
        "source_sequence": "2"
      }
    },
    {
      "type": "Feature",
      "id": "gsi-uki-earthquake-evacuation-place-E4321300004201",
      "geometry": {
        "type": "Point",
        "coordinates": [
          130.468192,
          32.610957
        ]
      },
      "properties": {
        "source_feature_id": "E4321300004201",
        "name": "三角小学校体育館",
        "address": "熊本県宇城市三角町三角浦574-1",
        "designation": "EARTHQUAKE_EVACUATION_PLACE",
        "earthquake_eligible": true,
        "event_status": "DESIGNATED_ONLY_UNKNOWN_EVENT_STATUS",
        "source_file_id": "43213_2",
        "source_sequence": "4"
      }
    },
    {
      "type": "Feature",
      "id": "gsi-uki-earthquake-evacuation-place-E4321300005201",
      "geometry": {
        "type": "Point",
        "coordinates": [
          130.52076,
          32.62558
        ]
      },
      "properties": {
        "source_feature_id": "E4321300005201",
        "name": "郡浦地区市民館",
        "address": "熊本県宇城市三角町中村1165",
        "designation": "EARTHQUAKE_EVACUATION_PLACE",
        "earthquake_eligible": true,
        "event_status": "DESIGNATED_ONLY_UNKNOWN_EVENT_STATUS",
        "source_file_id": "43213_2",
        "source_sequence": "5"
      }
    },
    {
      "type": "Feature",
      "id": "gsi-uki-earthquake-evacuation-place-E4321300007201",
      "geometry": {
        "type": "Point",
        "coordinates": [
          130.478616,
          32.613167
        ]
      },
      "properties": {
        "source_feature_id": "E4321300007201",
        "name": "三角防災拠点センター",
        "address": "熊本県宇城市三角町波多619-1",
        "designation": "EARTHQUAKE_EVACUATION_PLACE",
        "earthquake_eligible": true,
        "event_status": "DESIGNATED_ONLY_UNKNOWN_EVENT_STATUS",
        "source_file_id": "43213_2",
        "source_sequence": "7"
      }
    },
    {
      "type": "Feature",
      "id": "gsi-uki-earthquake-evacuation-place-E4321300009201",
      "geometry": {
        "type": "Point",
        "coordinates": [
          130.706656,
          32.59733
        ]
      },
      "properties": {
        "source_feature_id": "E4321300009201",
        "name": "イオンモール宇城",
        "address": "熊本県宇城市小川町河江1-1",
        "designation": "EARTHQUAKE_EVACUATION_PLACE",
        "earthquake_eligible": true,
        "event_status": "DESIGNATED_ONLY_UNKNOWN_EVENT_STATUS",
        "source_file_id": "43213_2",
        "source_sequence": "8"
      }
    },
    {
      "type": "Feature",
      "id": "gsi-uki-earthquake-evacuation-place-E4321300010201",
      "geometry": {
        "type": "Point",
        "coordinates": [
          130.704186,
          32.592538
        ]
      },
      "properties": {
        "source_feature_id": "E4321300010201",
        "name": "小川防災拠点センター",
        "address": "熊本県宇城市小川町江頭100",
        "designation": "EARTHQUAKE_EVACUATION_PLACE",
        "earthquake_eligible": true,
        "event_status": "DESIGNATED_ONLY_UNKNOWN_EVENT_STATUS",
        "source_file_id": "43213_2",
        "source_sequence": "9"
      }
    },
    {
      "type": "Feature",
      "id": "gsi-uki-earthquake-evacuation-place-E4321300011201",
      "geometry": {
        "type": "Point",
        "coordinates": [
          130.704498,
          32.593071
        ]
      },
      "properties": {
        "source_feature_id": "E4321300011201",
        "name": "ラポート",
        "address": "熊本県宇城市小川町江頭80",
        "designation": "EARTHQUAKE_EVACUATION_PLACE",
        "earthquake_eligible": true,
        "event_status": "DESIGNATED_ONLY_UNKNOWN_EVENT_STATUS",
        "source_file_id": "43213_2",
        "source_sequence": "10"
      }
    },
    {
      "type": "Feature",
      "id": "gsi-uki-earthquake-evacuation-place-E4321300012201",
      "geometry": {
        "type": "Point",
        "coordinates": [
          130.689715,
          32.599299
        ]
      },
      "properties": {
        "source_feature_id": "E4321300012201",
        "name": "河江小学校体育館",
        "address": "熊本県宇城市小川町新田1675-1",
        "designation": "EARTHQUAKE_EVACUATION_PLACE",
        "earthquake_eligible": true,
        "event_status": "DESIGNATED_ONLY_UNKNOWN_EVENT_STATUS",
        "source_file_id": "43213_2",
        "source_sequence": "11"
      }
    },
    {
      "type": "Feature",
      "id": "gsi-uki-earthquake-evacuation-place-E4321300013201",
      "geometry": {
        "type": "Point",
        "coordinates": [
          130.710802,
          32.581457
        ]
      },
      "properties": {
        "source_feature_id": "E4321300013201",
        "name": "小川小学校体育館",
        "address": "熊本県宇城市小川町西北小川1",
        "designation": "EARTHQUAKE_EVACUATION_PLACE",
        "earthquake_eligible": true,
        "event_status": "DESIGNATED_ONLY_UNKNOWN_EVENT_STATUS",
        "source_file_id": "43213_2",
        "source_sequence": "12"
      }
    },
    {
      "type": "Feature",
      "id": "gsi-uki-earthquake-evacuation-place-E4321300014201",
      "geometry": {
        "type": "Point",
        "coordinates": [
          130.743717,
          32.58264
        ]
      },
      "properties": {
        "source_feature_id": "E4321300014201",
        "name": "海東地区農村コミュニティ施設（ふれあいセンター）",
        "address": "熊本県宇城市小川町南海東2047-1",
        "designation": "EARTHQUAKE_EVACUATION_PLACE",
        "earthquake_eligible": true,
        "event_status": "DESIGNATED_ONLY_UNKNOWN_EVENT_STATUS",
        "source_file_id": "43213_2",
        "source_sequence": "13"
      }
    },
    {
      "type": "Feature",
      "id": "gsi-uki-earthquake-evacuation-place-E4321300015201",
      "geometry": {
        "type": "Point",
        "coordinates": [
          130.744784,
          32.583439
        ]
      },
      "properties": {
        "source_feature_id": "E4321300015201",
        "name": "海東小学校体育館",
        "address": "熊本県宇城市小川町南海東2050",
        "designation": "EARTHQUAKE_EVACUATION_PLACE",
        "earthquake_eligible": true,
        "event_status": "DESIGNATED_ONLY_UNKNOWN_EVENT_STATUS",
        "source_file_id": "43213_2",
        "source_sequence": "14"
      }
    },
    {
      "type": "Feature",
      "id": "gsi-uki-earthquake-evacuation-place-E4321300016201",
      "geometry": {
        "type": "Point",
        "coordinates": [
          130.718763,
          32.607218
        ]
      },
      "properties": {
        "source_feature_id": "E4321300016201",
        "name": "小野部田小学校体育館",
        "address": "熊本県宇城市小川町南小野1402",
        "designation": "EARTHQUAKE_EVACUATION_PLACE",
        "earthquake_eligible": true,
        "event_status": "DESIGNATED_ONLY_UNKNOWN_EVENT_STATUS",
        "source_file_id": "43213_2",
        "source_sequence": "15"
      }
    },
    {
      "type": "Feature",
      "id": "gsi-uki-earthquake-evacuation-place-E4321300017201",
      "geometry": {
        "type": "Point",
        "coordinates": [
          130.693736,
          32.598717
        ]
      },
      "properties": {
        "source_feature_id": "E4321300017201",
        "name": "河江地区コミュニティセンター",
        "address": "熊本県宇城市小川町南新田476",
        "designation": "EARTHQUAKE_EVACUATION_PLACE",
        "earthquake_eligible": true,
        "event_status": "DESIGNATED_ONLY_UNKNOWN_EVENT_STATUS",
        "source_file_id": "43213_2",
        "source_sequence": "16"
      }
    },
    {
      "type": "Feature",
      "id": "gsi-uki-earthquake-evacuation-place-E4321300018201",
      "geometry": {
        "type": "Point",
        "coordinates": [
          130.714836,
          32.590202
        ]
      },
      "properties": {
        "source_feature_id": "E4321300018201",
        "name": "小川中学校体育館",
        "address": "熊本県宇城市小川町南部田287-2",
        "designation": "EARTHQUAKE_EVACUATION_PLACE",
        "earthquake_eligible": true,
        "event_status": "DESIGNATED_ONLY_UNKNOWN_EVENT_STATUS",
        "source_file_id": "43213_2",
        "source_sequence": "17"
      }
    },
    {
      "type": "Feature",
      "id": "gsi-uki-earthquake-evacuation-place-E4321300019201",
      "geometry": {
        "type": "Point",
        "coordinates": [
          130.697691,
          32.604858
        ]
      },
      "properties": {
        "source_feature_id": "E4321300019201",
        "name": "小川工業高等学校",
        "address": "熊本県宇城市小川町北新田770",
        "designation": "EARTHQUAKE_EVACUATION_PLACE",
        "earthquake_eligible": true,
        "event_status": "DESIGNATED_ONLY_UNKNOWN_EVENT_STATUS",
        "source_file_id": "43213_2",
        "source_sequence": "18"
      }
    },
    {
      "type": "Feature",
      "id": "gsi-uki-earthquake-evacuation-place-E4321300020201",
      "geometry": {
        "type": "Point",
        "coordinates": [
          130.685865,
          32.647648
        ]
      },
      "properties": {
        "source_feature_id": "E4321300020201",
        "name": "松橋高等学校",
        "address": "熊本県宇城市松橋町久具300",
        "designation": "EARTHQUAKE_EVACUATION_PLACE",
        "earthquake_eligible": true,
        "event_status": "DESIGNATED_ONLY_UNKNOWN_EVENT_STATUS",
        "source_file_id": "43213_2",
        "source_sequence": "19"
      }
    },
    {
      "type": "Feature",
      "id": "gsi-uki-earthquake-evacuation-place-E4321300021201",
      "geometry": {
        "type": "Point",
        "coordinates": [
          130.702127,
          32.65776
        ]
      },
      "properties": {
        "source_feature_id": "E4321300021201",
        "name": "当尾小学校体育館",
        "address": "熊本県宇城市松橋町曲野1856",
        "designation": "EARTHQUAKE_EVACUATION_PLACE",
        "earthquake_eligible": true,
        "event_status": "DESIGNATED_ONLY_UNKNOWN_EVENT_STATUS",
        "source_file_id": "43213_2",
        "source_sequence": "20"
      }
    },
    {
      "type": "Feature",
      "id": "gsi-uki-earthquake-evacuation-place-E4321300022201",
      "geometry": {
        "type": "Point",
        "coordinates": [
          130.68596,
          32.6569
        ]
      },
      "properties": {
        "source_feature_id": "E4321300022201",
        "name": "松橋小学校体育館",
        "address": "熊本県宇城市松橋町松橋1666",
        "designation": "EARTHQUAKE_EVACUATION_PLACE",
        "earthquake_eligible": true,
        "event_status": "DESIGNATED_ONLY_UNKNOWN_EVENT_STATUS",
        "source_file_id": "43213_2",
        "source_sequence": "21"
      }
    },
    {
      "type": "Feature",
      "id": "gsi-uki-earthquake-evacuation-place-E4321300023201",
      "geometry": {
        "type": "Point",
        "coordinates": [
          130.67912,
          32.647345
        ]
      },
      "properties": {
        "source_feature_id": "E4321300023201",
        "name": "松橋西支援学校",
        "address": "熊本県宇城市松橋町松橋308-1",
        "designation": "EARTHQUAKE_EVACUATION_PLACE",
        "earthquake_eligible": true,
        "event_status": "DESIGNATED_ONLY_UNKNOWN_EVENT_STATUS",
        "source_file_id": "43213_2",
        "source_sequence": "22"
      }
    },
    {
      "type": "Feature",
      "id": "gsi-uki-earthquake-evacuation-place-E4321300025201",
      "geometry": {
        "type": "Point",
        "coordinates": [
          130.680611,
          32.649648
        ]
      },
      "properties": {
        "source_feature_id": "E4321300025201",
        "name": "宇城市保健福祉センター",
        "address": "熊本県宇城市松橋町松橋396-1",
        "designation": "EARTHQUAKE_EVACUATION_PLACE",
        "earthquake_eligible": true,
        "event_status": "DESIGNATED_ONLY_UNKNOWN_EVENT_STATUS",
        "source_file_id": "43213_2",
        "source_sequence": "23"
      }
    },
    {
      "type": "Feature",
      "id": "gsi-uki-earthquake-evacuation-place-E4321300026201",
      "geometry": {
        "type": "Point",
        "coordinates": [
          130.681745,
          32.650474
        ]
      },
      "properties": {
        "source_feature_id": "E4321300026201",
        "name": "松橋中学校体育館",
        "address": "熊本県宇城市松橋町松橋522-1",
        "designation": "EARTHQUAKE_EVACUATION_PLACE",
        "earthquake_eligible": true,
        "event_status": "DESIGNATED_ONLY_UNKNOWN_EVENT_STATUS",
        "source_file_id": "43213_2",
        "source_sequence": "24"
      }
    },
    {
      "type": "Feature",
      "id": "gsi-uki-earthquake-evacuation-place-E4321300027201",
      "geometry": {
        "type": "Point",
        "coordinates": [
          130.678418,
          32.651551
        ]
      },
      "properties": {
        "source_feature_id": "E4321300027201",
        "name": "インダストリアル研修館",
        "address": "熊本県宇城市松橋町松橋564",
        "designation": "EARTHQUAKE_EVACUATION_PLACE",
        "earthquake_eligible": true,
        "event_status": "DESIGNATED_ONLY_UNKNOWN_EVENT_STATUS",
        "source_file_id": "43213_2",
        "source_sequence": "25"
      }
    },
    {
      "type": "Feature",
      "id": "gsi-uki-earthquake-evacuation-place-E4321300028201",
      "geometry": {
        "type": "Point",
        "coordinates": [
          130.678809,
          32.651984
        ]
      },
      "properties": {
        "source_feature_id": "E4321300028201",
        "name": "松橋西防災拠点センター",
        "address": "熊本県宇城市松橋町松橋564-2",
        "designation": "EARTHQUAKE_EVACUATION_PLACE",
        "earthquake_eligible": true,
        "event_status": "DESIGNATED_ONLY_UNKNOWN_EVENT_STATUS",
        "source_file_id": "43213_2",
        "source_sequence": "26"
      }
    },
    {
      "type": "Feature",
      "id": "gsi-uki-earthquake-evacuation-place-E4321300030201",
      "geometry": {
        "type": "Point",
        "coordinates": [
          130.679043,
          32.65904
        ]
      },
      "properties": {
        "source_feature_id": "E4321300030201",
        "name": "岡岳公園",
        "address": "熊本県宇城市松橋町松山3725",
        "designation": "EARTHQUAKE_EVACUATION_PLACE",
        "earthquake_eligible": true,
        "event_status": "DESIGNATED_ONLY_UNKNOWN_EVENT_STATUS",
        "source_file_id": "43213_2",
        "source_sequence": "27"
      }
    },
    {
      "type": "Feature",
      "id": "gsi-uki-earthquake-evacuation-place-E4321300031201",
      "geometry": {
        "type": "Point",
        "coordinates": [
          130.684118,
          32.64684
        ]
      },
      "properties": {
        "source_feature_id": "E4321300031201",
        "name": "ウイング松橋",
        "address": "熊本県宇城市松橋町大野85",
        "designation": "EARTHQUAKE_EVACUATION_PLACE",
        "earthquake_eligible": true,
        "event_status": "DESIGNATED_ONLY_UNKNOWN_EVENT_STATUS",
        "source_file_id": "43213_2",
        "source_sequence": "28"
      }
    },
    {
      "type": "Feature",
      "id": "gsi-uki-earthquake-evacuation-place-E4321300032201",
      "geometry": {
        "type": "Point",
        "coordinates": [
          130.682144,
          32.623386
        ]
      },
      "properties": {
        "source_feature_id": "E4321300032201",
        "name": "松橋支援学校",
        "address": "熊本県宇城市松橋町南豊崎252",
        "designation": "EARTHQUAKE_EVACUATION_PLACE",
        "earthquake_eligible": true,
        "event_status": "DESIGNATED_ONLY_UNKNOWN_EVENT_STATUS",
        "source_file_id": "43213_2",
        "source_sequence": "29"
      }
    },
    {
      "type": "Feature",
      "id": "gsi-uki-earthquake-evacuation-place-E4321300033201",
      "geometry": {
        "type": "Point",
        "coordinates": [
          130.679587,
          32.624862
        ]
      },
      "properties": {
        "source_feature_id": "E4321300033201",
        "name": "豊川小学校体育館",
        "address": "熊本県宇城市松橋町南豊崎582",
        "designation": "EARTHQUAKE_EVACUATION_PLACE",
        "earthquake_eligible": true,
        "event_status": "DESIGNATED_ONLY_UNKNOWN_EVENT_STATUS",
        "source_file_id": "43213_2",
        "source_sequence": "30"
      }
    },
    {
      "type": "Feature",
      "id": "gsi-uki-earthquake-evacuation-place-E4321300034201",
      "geometry": {
        "type": "Point",
        "coordinates": [
          130.700735,
          32.634482
        ]
      },
      "properties": {
        "source_feature_id": "E4321300034201",
        "name": "豊福小学校体育館",
        "address": "熊本県宇城市松橋町豊福1604",
        "designation": "EARTHQUAKE_EVACUATION_PLACE",
        "earthquake_eligible": true,
        "event_status": "DESIGNATED_ONLY_UNKNOWN_EVENT_STATUS",
        "source_file_id": "43213_2",
        "source_sequence": "31"
      }
    },
    {
      "type": "Feature",
      "id": "gsi-uki-earthquake-evacuation-place-E4321300035201",
      "geometry": {
        "type": "Point",
        "coordinates": [
          130.702563,
          32.642917
        ]
      },
      "properties": {
        "source_feature_id": "E4321300035201",
        "name": "松橋東防災拠点センター",
        "address": "熊本県宇城市松橋町豊福1786",
        "designation": "EARTHQUAKE_EVACUATION_PLACE",
        "earthquake_eligible": true,
        "event_status": "DESIGNATED_ONLY_UNKNOWN_EVENT_STATUS",
        "source_file_id": "43213_2",
        "source_sequence": "32"
      }
    },
    {
      "type": "Feature",
      "id": "gsi-uki-earthquake-evacuation-place-E4321300035202",
      "geometry": {
        "type": "Point",
        "coordinates": [
          130.702964,
          32.642829
        ]
      },
      "properties": {
        "source_feature_id": "E4321300035202",
        "name": "松橋勤労身体障害者教養文化体育施設",
        "address": "熊本県宇城市松橋町豊福1786",
        "designation": "EARTHQUAKE_EVACUATION_PLACE",
        "earthquake_eligible": true,
        "event_status": "DESIGNATED_ONLY_UNKNOWN_EVENT_STATUS",
        "source_file_id": "43213_2",
        "source_sequence": "33"
      }
    },
    {
      "type": "Feature",
      "id": "gsi-uki-earthquake-evacuation-place-E4321300035203",
      "geometry": {
        "type": "Point",
        "coordinates": [
          130.701651,
          32.64279
        ]
      },
      "properties": {
        "source_feature_id": "E4321300035203",
        "name": "宇城市老人福祉センター",
        "address": "熊本県宇城市松橋町豊福1786",
        "designation": "EARTHQUAKE_EVACUATION_PLACE",
        "earthquake_eligible": true,
        "event_status": "DESIGNATED_ONLY_UNKNOWN_EVENT_STATUS",
        "source_file_id": "43213_2",
        "source_sequence": "34"
      }
    },
    {
      "type": "Feature",
      "id": "gsi-uki-earthquake-evacuation-place-E4321300036201",
      "geometry": {
        "type": "Point",
        "coordinates": [
          130.700077,
          32.644439
        ]
      },
      "properties": {
        "source_feature_id": "E4321300036201",
        "name": "松橋東支援学校",
        "address": "熊本県宇城市松橋町豊福2910",
        "designation": "EARTHQUAKE_EVACUATION_PLACE",
        "earthquake_eligible": true,
        "event_status": "DESIGNATED_ONLY_UNKNOWN_EVENT_STATUS",
        "source_file_id": "43213_2",
        "source_sequence": "35"
      }
    },
    {
      "type": "Feature",
      "id": "gsi-uki-earthquake-evacuation-place-E4321300037201",
      "geometry": {
        "type": "Point",
        "coordinates": [
          130.662448,
          32.644928
        ]
      },
      "properties": {
        "source_feature_id": "E4321300037201",
        "name": "不知火小学校体育館",
        "address": "熊本県宇城市不知火町高良1952",
        "designation": "EARTHQUAKE_EVACUATION_PLACE",
        "earthquake_eligible": true,
        "event_status": "DESIGNATED_ONLY_UNKNOWN_EVENT_STATUS",
        "source_file_id": "43213_2",
        "source_sequence": "36"
      }
    },
    {
      "type": "Feature",
      "id": "gsi-uki-earthquake-evacuation-place-E4321300039201",
      "geometry": {
        "type": "Point",
        "coordinates": [
          130.668108,
          32.646298
        ]
      },
      "properties": {
        "source_feature_id": "E4321300039201",
        "name": "不知火防災拠点センター",
        "address": "熊本県宇城市不知火町高良2273-1",
        "designation": "EARTHQUAKE_EVACUATION_PLACE",
        "earthquake_eligible": true,
        "event_status": "DESIGNATED_ONLY_UNKNOWN_EVENT_STATUS",
        "source_file_id": "43213_2",
        "source_sequence": "37"
      }
    },
    {
      "type": "Feature",
      "id": "gsi-uki-earthquake-evacuation-place-E4321300039202",
      "geometry": {
        "type": "Point",
        "coordinates": [
          130.668526,
          32.645971
        ]
      },
      "properties": {
        "source_feature_id": "E4321300039202",
        "name": "不知火体育館",
        "address": "熊本県宇城市不知火町高良2273-1",
        "designation": "EARTHQUAKE_EVACUATION_PLACE",
        "earthquake_eligible": true,
        "event_status": "DESIGNATED_ONLY_UNKNOWN_EVENT_STATUS",
        "source_file_id": "43213_2",
        "source_sequence": "38"
      }
    },
    {
      "type": "Feature",
      "id": "gsi-uki-earthquake-evacuation-place-E4321300039203",
      "geometry": {
        "type": "Point",
        "coordinates": [
          130.667897,
          32.646752
        ]
      },
      "properties": {
        "source_feature_id": "E4321300039203",
        "name": "不知火支所",
        "address": "熊本県宇城市不知火町高良2273-1",
        "designation": "EARTHQUAKE_EVACUATION_PLACE",
        "earthquake_eligible": true,
        "event_status": "DESIGNATED_ONLY_UNKNOWN_EVENT_STATUS",
        "source_file_id": "43213_2",
        "source_sequence": "39"
      }
    },
    {
      "type": "Feature",
      "id": "gsi-uki-earthquake-evacuation-place-E4321300039204",
      "geometry": {
        "type": "Point",
        "coordinates": [
          130.668637,
          32.645665
        ]
      },
      "properties": {
        "source_feature_id": "E4321300039204",
        "name": "武道館",
        "address": "熊本県宇城市不知火町高良2273-1",
        "designation": "EARTHQUAKE_EVACUATION_PLACE",
        "earthquake_eligible": true,
        "event_status": "DESIGNATED_ONLY_UNKNOWN_EVENT_STATUS",
        "source_file_id": "43213_2",
        "source_sequence": "40"
      }
    },
    {
      "type": "Feature",
      "id": "gsi-uki-earthquake-evacuation-place-E4321300040201",
      "geometry": {
        "type": "Point",
        "coordinates": [
          130.659767,
          32.64727
        ]
      },
      "properties": {
        "source_feature_id": "E4321300040201",
        "name": "龍燈公園",
        "address": "熊本県宇城市不知火町高良696",
        "designation": "EARTHQUAKE_EVACUATION_PLACE",
        "earthquake_eligible": true,
        "event_status": "DESIGNATED_ONLY_UNKNOWN_EVENT_STATUS",
        "source_file_id": "43213_2",
        "source_sequence": "41"
      }
    },
    {
      "type": "Feature",
      "id": "gsi-uki-earthquake-evacuation-place-E4321300041201",
      "geometry": {
        "type": "Point",
        "coordinates": [
          130.604503,
          32.633744
        ]
      },
      "properties": {
        "source_feature_id": "E4321300041201",
        "name": "旧松合小学校体育館",
        "address": "熊本県宇城市不知火町松合1578",
        "designation": "EARTHQUAKE_EVACUATION_PLACE",
        "earthquake_eligible": true,
        "event_status": "DESIGNATED_ONLY_UNKNOWN_EVENT_STATUS",
        "source_file_id": "43213_2",
        "source_sequence": "42"
      }
    },
    {
      "type": "Feature",
      "id": "gsi-uki-earthquake-evacuation-place-E4321300042201",
      "geometry": {
        "type": "Point",
        "coordinates": [
          130.607719,
          32.63063
        ]
      },
      "properties": {
        "source_feature_id": "E4321300042201",
        "name": "松合体育館",
        "address": "熊本県宇城市不知火町松合168-1",
        "designation": "EARTHQUAKE_EVACUATION_PLACE",
        "earthquake_eligible": true,
        "event_status": "DESIGNATED_ONLY_UNKNOWN_EVENT_STATUS",
        "source_file_id": "43213_2",
        "source_sequence": "43"
      }
    },
    {
      "type": "Feature",
      "id": "gsi-uki-earthquake-evacuation-place-E4321300042202",
      "geometry": {
        "type": "Point",
        "coordinates": [
          130.608099,
          32.630608
        ]
      },
      "properties": {
        "source_feature_id": "E4321300042202",
        "name": "宇城市松合地区市民館",
        "address": "熊本県宇城市不知火町松合168-1",
        "designation": "EARTHQUAKE_EVACUATION_PLACE",
        "earthquake_eligible": true,
        "event_status": "DESIGNATED_ONLY_UNKNOWN_EVENT_STATUS",
        "source_file_id": "43213_2",
        "source_sequence": "44"
      }
    },
    {
      "type": "Feature",
      "id": "gsi-uki-earthquake-evacuation-place-E4321300044201",
      "geometry": {
        "type": "Point",
        "coordinates": [
          130.656776,
          32.646738
        ]
      },
      "properties": {
        "source_feature_id": "E4321300044201",
        "name": "不知火中学校体育館",
        "address": "熊本県宇城市不知火町長崎45",
        "designation": "EARTHQUAKE_EVACUATION_PLACE",
        "earthquake_eligible": true,
        "event_status": "DESIGNATED_ONLY_UNKNOWN_EVENT_STATUS",
        "source_file_id": "43213_2",
        "source_sequence": "45"
      }
    },
    {
      "type": "Feature",
      "id": "gsi-uki-earthquake-evacuation-place-E4321300045201",
      "geometry": {
        "type": "Point",
        "coordinates": [
          130.753663,
          32.634934
        ]
      },
      "properties": {
        "source_feature_id": "E4321300045201",
        "name": "農業者トレーニングセンター",
        "address": "熊本県宇城市豊野町糸石3029",
        "designation": "EARTHQUAKE_EVACUATION_PLACE",
        "earthquake_eligible": true,
        "event_status": "DESIGNATED_ONLY_UNKNOWN_EVENT_STATUS",
        "source_file_id": "43213_2",
        "source_sequence": "46"
      }
    },
    {
      "type": "Feature",
      "id": "gsi-uki-earthquake-evacuation-place-E4321300046201",
      "geometry": {
        "type": "Point",
        "coordinates": [
          130.750995,
          32.63583
        ]
      },
      "properties": {
        "source_feature_id": "E4321300046201",
        "name": "豊野防災拠点センター",
        "address": "熊本県宇城市豊野町糸石3140-3",
        "designation": "EARTHQUAKE_EVACUATION_PLACE",
        "earthquake_eligible": true,
        "event_status": "DESIGNATED_ONLY_UNKNOWN_EVENT_STATUS",
        "source_file_id": "43213_2",
        "source_sequence": "47"
      }
    },
    {
      "type": "Feature",
      "id": "gsi-uki-earthquake-evacuation-place-E4321300048201",
      "geometry": {
        "type": "Point",
        "coordinates": [
          130.749568,
          32.636967
        ]
      },
      "properties": {
        "source_feature_id": "E4321300048201",
        "name": "豊野小中学校体育館",
        "address": "熊本県宇城市豊野町糸石3536",
        "designation": "EARTHQUAKE_EVACUATION_PLACE",
        "earthquake_eligible": true,
        "event_status": "DESIGNATED_ONLY_UNKNOWN_EVENT_STATUS",
        "source_file_id": "43213_2",
        "source_sequence": "48"
      }
    },
    {
      "type": "Feature",
      "id": "gsi-uki-earthquake-evacuation-place-E4321300049201",
      "geometry": {
        "type": "Point",
        "coordinates": [
          130.768713,
          32.644052
        ]
      },
      "properties": {
        "source_feature_id": "E4321300049201",
        "name": "豊野町コミュニティセンター",
        "address": "熊本県宇城市豊野町巣林309-1",
        "designation": "EARTHQUAKE_EVACUATION_PLACE",
        "earthquake_eligible": true,
        "event_status": "DESIGNATED_ONLY_UNKNOWN_EVENT_STATUS",
        "source_file_id": "43213_2",
        "source_sequence": "49"
      }
    }
  ]
}
